{"spkid": "20154276", "covariance": {"epoch": "2458521.5", "labels": ["e", "q", "tp", "node", "peri", "i"], "elements": [{"label": "e", "name": "e", "sigma": 9.51408537410563e-09, "title": "eccentricity", "value": ".68929755777862", "units": null}, {"label": "q", "title": "perihelion distance", "value": ".529578296347831", "units": "au", "sigma": 1.68039484870132e-08, "name": "q"}, {"label": "tp", "units": "TDB", "value": "2458324.367260407486", "title": "time of perihelion passage", "sigma": 1.2938443451541e-05, "name": "tp"}, {"value": "34.28902882613927", "title": "longitude of the ascending node", "units": "deg", "name": "om", "sigma": 1.01627480819004e-05, "label": "node"}, {"label": "peri", "units": "deg", "title": "argument of perihelion", "value": "99.39675931212923", "sigma": 9.5320900500474e-06, "name": "w"}, {"sigma": 3.04707487667476e-06, "name": "i", "title": "inclination", "value": "8.7434308193394", "units": "deg", "label": "i"}], "data": [["9.051782050577069E-17", "-1.58759865459263E-16", "5.451039251074006E-14", "7.359093134312896E-14", "-6.149612205636399E-14", "1.363682953997155E-15"], ["-1.58759865459263E-16", "2.823726847541923E-16", "-1.181579005081099E-13", "-1.245882809588145E-13", "1.03498608424062E-13", "-2.096107660855301E-15"], ["5.451039251074006E-14", "-1.181579005081099E-13", "1.674033189487247E-10", "6.774020788073596E-12", "9.189066387084459E-13", "-1.482981860289967E-12"], ["7.359093134312896E-14", "-1.245882809588145E-13", "6.774020788073596E-12", "1.032814485761698E-10", "-9.588327553488649E-11", "-5.846738823285119E-12"], ["-6.149612205636399E-14", "1.03498608424062E-13", "9.189066387084459E-13", "-9.588327553488649E-11", "9.086074072221259E-11", "6.709184266900657E-12"], ["1.363682953997155E-15", "-2.096107660855301E-15", "-1.482981860289967E-12", "-5.846738823285119E-12", "6.709184266900657E-12", "9.2846653040625E-12"]]}, "elements": [{"value": ".6889444950166206", "title": "eccentricity", "units": null, "name": "e", "sigma": "9.6235E-9", "label": "e"}, {"title": "semi-major axis", "value": "1.705288930579216", "units": "au", "sigma": "5.3396E-9", "name": "a", "label": "a"}, {"label": "q", "name": "q", "sigma": "1.673E-8", "units": "au", "title": "perihelion distance", "value": ".5304395094438852"}, {"label": "i", "units": "deg", "title": "inclination; angle with respect to x-y ecliptic plane", "value": "8.740614047280387", "sigma": "3.0524E-6", "name": "i"}, {"label": "node", "title": "longitude of the ascending node", "value": "34.00166774005773", "units": "deg", "sigma": "1.0129E-5", "name": "om"}, {"name": "w", "sigma": "9.492E-6", "title": "argument of perihelion", "value": "99.72654579185308", "units": "deg", "label": "peri"}, {"sigma": "2.3011E-6", "name": "ma", "title": "mean anomaly", "value": "193.6689992803534", "units": "deg", "label": "M"}, {"sigma": "6.2127E-6", "name": "tp", "units": "TDB", "value": "2461576.308056322320", "title": "time of perihelion passage", "label": "tp"}, {"label": "period", "sigma": "3.8203E-6", "name": "per", "units": "d", "value": "813.3835526190929", "title": "sidereal orbital period"}, {"label": "n", "sigma": "2.0788E-9", "name": "n", "units": "deg/d", "title": "mean motion", "value": ".442595622742556"}, {"name": "ad", "sigma": "9.0183E-9", "title": "aphelion distance", "value": "2.880138351714547", "units": "au", "label": "Q"}], "epoch": "2461200.5"}